<?xml version="1.0" encoding="UTF-8"?>

{%- macro real_quantity(real) %}
  <value>{{ real.value }}</value>
  {%- if real.uncertainty %}
  <uncertainty>{{ real.uncertainty }}</uncertainty>
  {%- endif %}
{%- endmacro %}

{%- macro creation_info(info) %}
  <creationInfo>
  {%- if info.agency_id %}
    <agencyID>{{ info.agency_id }}</agencyID>
  {%- endif %}
  {%- if info.agency_uri %}
    <agencyURI>{{ info.agency_uri }}</agencyURI>
  {%- endif %}
  {%- if info.author %}
    <author>{{ info.author }}</author>
  {%- endif %}
  {%- if info.author_uri %}
    <authorURI>{{ info.author_uri }}</authorURI>
  {%- endif %}
  {%- if info.creation_time %}
    <creationTime>{{ info.creation_time }}</creationTime>
  {%- endif %}
  {%- if info.modification_time %}
    <modificationTime>{{ info.modification_time }}</modificationTime>
  {%- endif %}
  {%- if info.version %}
    <version>{{ info.version }}</version>
  {%- endif %}
  </creationInfo>
{%- endmacro %}

{%- macro waveform_id(wfid) %}
<waveformID
  networkCode="{{ wfid.network_code }}"
  stationCode="{{ wfid.station_code }}"
{%- if wfid.location_code %}
  locationCode="{{ wfid.location_code }}"
{%- endif %}
  channelCode="{{ wfid.channel_code }}"/>
{%- endmacro %}

<seiscomp xmlns="http://geofon.gfz-potsdam.de/ns/seiscomp3-schema/{{ version }}" version="{{ version }}">
  <EventParameters>
{%- for event in jquake %}
  {%- for pick in event.pick %}
    <pick publicID="{{ pick.public_id | remove_resource_prefix }}">
      <time>
        <value>{{ pick.time.value }}</value>
      {%- if pick.time.lower_uncertainty %}
        <lowerUncertainty>{{ pick.time.lower_uncertainty }}</lowerUncertainty>
      {%- endif %}
      {%- if pick.time.upper_uncertainty %}
        <upperUncertainty>{{ pick.time.upper_uncertainty }}</upperUncertainty>
      {%- endif %}
      </time>
      {{ waveform_id(pick.waveform_id) }}
    {%- if pick.filter_id %}
      <filterID>{{ pick.filter_id | remove_resource_prefix }}</filterID>
    {%- endif %}
    {%- if pick.method_id %}
      <methodID>{{ pick.method_id | remove_resource_prefix }}</methodID>
    {%- endif %}
      <phaseHint>{{ pick.phase_hint }}</phaseHint>
      <evaluationMode>{{ pick.evaluation_mode }}</evaluationMode>
    {%- if pick.evaluation_status %}
      <evaluationStatus>{{ pick.evaluation_status }}</evaluationStatus>
    {%- endif %}
    {%- if pick.creation_info %}
      {{ creation_info(pick.creation_info) }}
    {%- endif %}
    </pick>
  {%- endfor %}

{%- if event.amplitude %}
  {%- for amplitude in event.amplitude  %}
    <amplitude publicID="{{ amplitude.public_id | remove_resource_prefix }}">
      <type>{{ amplitude.type }}</type>
      <amplitude>
        <value>{{ amplitude.generic_amplitude.value }}</value>
      </amplitude>
      <timeWindow>
        <reference>{{ amplitude.time_window.reference }}</reference>
        <begin>{{ amplitude.time_window.begin }}</begin>
        <end>{{ amplitude.time_window.end }}</end>
      </timeWindow>
      <snr>{{ amplitude.snr }}</snr>
      <pickID>{{ amplitude.pick_id | remove_resource_prefix }}</pickID>
      {{ waveform_id(amplitude.waveform_id) }}
    {%- if amplitude.creation_info %}
      {{ creation_info(amplitude.creation_info) }}
    {%- endif %}
    </amplitude>
  {%- endfor  %}
{%- endif %}

  {%- for origin in event.origin %}
    <origin publicID="{{ origin.public_id | remove_resource_prefix }}">
      <time>
        <value>{{ origin.time.value }}</value>
        <uncertainty>{{ origin.time.uncertainty }}</uncertainty>
      </time>
      <latitude>
        {{ real_quantity(origin.latitude) }}
      </latitude>
      <longitude>
        {{ real_quantity(origin.longitude) }}
      </longitude>
      <depth>
        <value>{{ origin.depth.value / 1000 }}</value>
      {% if origin.depth.uncertainty %}
        <uncertainty>{{ origin.depth.uncertainty / 1000 }}</uncertainty>
      {% endif %}
      </depth>
    {%- if origin.method_id %}
      <methodID>{{ origin.method_id | remove_resource_prefix }}</methodID>
    {%- endif %}
    {%- if origin.earth_model_id %}
      <earthModelID>{{ origin.earth_model_id | remove_resource_prefix }}</earthModelID>
    {%- endif %}
    {%- if origin.quality %}
      <quality>
      {%- if origin.quality.associated_phase_count %}
        <associatedPhaseCount>{{ origin.quality.associated_phase_count }}</associatedPhaseCount>
      {%- endif %}
      {%- if origin.quality.used_phase_count %}
        <usedPhaseCount>{{ origin.quality.used_phase_count }}</usedPhaseCount>
      {%- endif %}
      {%- if origin.quality.associated_station_count %}
        <associatedStationCount>{{ origin.quality.associated_station_count }}</associatedStationCount>
      {%- endif %}
      {%- if origin.quality.used_station_count %}
        <usedStationCount>{{ origin.quality.used_station_count }}</usedStationCount>
      {%- endif %}
      {%- if origin.quality.standard_error %}
        <standardError>{{ origin.quality.standard_error }}</standardError>
      {%- endif %}
      {%- if origin.quality.azimuthal_gap %}
        <azimuthalGap>{{ origin.quality.azimuthal_gap }}</azimuthalGap>
      {%- endif %}
      {%- if origin.quality.maximum_distance %}
        <maximumDistance>{{ origin.quality.maximum_distance }}</maximumDistance>
      {%- endif %}
      {%- if origin.quality.minimum_distance %}
        <minimumDistance>{{ origin.quality.minimum_distance }}</minimumDistance>
      {%- endif %}
      {%- if origin.quality.median_distance %}
        <medianDistance>{{ origin.quality.median_distance }}</medianDistance>
      {%- endif %}
      </quality>
    {%- endif %}
      <evaluationMode>{{ origin.evaluation_mode }}</evaluationMode>
    {%- if origin.evaluation_status %}
      <evaluationStatus>{{ origin.evaluation_status }}</evaluationStatus>
    {%- endif %}
    {%- if origin.creation_info %}
      {{ creation_info(origin.creation_info) }}
    {%- endif %}

  {%- if origin.arrival %}
    {%- for arrival in origin.arrival %}
      <arrival>
        <pickID>{{ arrival.pick_id | remove_resource_prefix }}</pickID>
        <phase>{{ arrival.phase }}</phase>
        <azimuth>{{ arrival.azimuth }}</azimuth>
        <distance>{{ arrival.distance }}</distance>
        <timeResidual>{{ arrival.time_residual }}</timeResidual>
        <timeUsed>{% if arrival.time_weight == 0 %}false{% else %}true{% endif %}</timeUsed>
        <weight>{{ arrival.time_weight }}</weight>
      {% if arrival.creation_info %}
        {{ creation_info(arrival.creation_info) }}
      {% endif %}
      </arrival>
    {%- endfor %}
  {%- endif %}

{%- if event.station_magnitude %}
  {%- for station_magnitude in event.station_magnitude %}
    {%- if station_magnitude.origin_id == origin.public_id %}
      <stationMagnitude publicID="{{ station_magnitude.public_id | remove_resource_prefix }}">
        <magnitude>
          <value>{{ station_magnitude.mag.value }}</value>
        </magnitude>
        <type>{{ station_magnitude.type }}</type>
        <amplitudeID>{{ station_magnitude.amplitude_id | remove_resource_prefix }}</amplitudeID>
        {{ waveform_id(station_magnitude.waveform_id) }}
      {%- if station_magnitude.creation_info %}
        {{ creation_info(station_magnitude.creation_info) }}
      {%- endif %}
      </stationMagnitude>
    {%- endif %}
  {%- endfor %}
{%- endif %}

{%- if event.magnitude %}
  {%- for magnitude in event.magnitude %}
    {%- if magnitude.origin_id == origin.public_id %}
      <magnitude publicID="{{ magnitude.public_id | remove_resource_prefix }}">
        <magnitude>
          {{ real_quantity(magnitude.mag) }}
        </magnitude>
        <type>{{ magnitude.type }}</type>
      {%- if magnitude.origin_id %}
        <originID>{{ magnitude.origin_id | remove_resource_prefix }}</originID>
      {%- endif %}
      {%- if magnitude.method_id %}
        <methodID>{{ magnitude.method_id | remove_resource_prefix }}</methodID>
      {%- endif %}
      {%- if magnitude.station_count %}
        <stationCount>{{ magnitude.station_count }}</stationCount>
      {%- endif %}
      {%- if magnitude.creation_info %}
        {{ creation_info(magnitude.creation_info) }}
      {%- endif %}
    {%- if magnitude.station_magnitude_contribution %}
      {%- for station_magnitude_contribution in magnitude.station_magnitude_contribution %}
        <stationMagnitudeContribution>
          <stationMagnitudeID>{{ station_magnitude_contribution.station_magnitude_id | remove_resource_prefix }}</stationMagnitudeID>
        {%- if station_magnitude_contribution.residual %}
          <residual>{{ station_magnitude_contribution.residual }}</residual>
        {%- endif %}
        {%- if station_magnitude_contribution.weight %}
          <weight>{{ station_magnitude_contribution.weight }}</weight>
        {%- endif %}
        </stationMagnitudeContribution>
      {%- endfor %}
    {%- endif %}
      </magnitude>
    {%- endif %}
  {%- endfor %}
{%- endif %}

    </origin>

  {%- endfor %}

    <event publicID="{{ event.public_id | remove_resource_prefix }}">
    {%- if event.preferred_origin_id %}
      <preferredOriginID>{{ event.preferred_origin_id | remove_resource_prefix }}</preferredOriginID>
    {%- endif %}
    {%- if event.preferred_magnitude_id %}
      <preferredMagnitudeID>{{ event.preferred_magnitude_id | remove_resource_prefix }}</preferredMagnitudeID>
    {%- endif %}
    {%- if event.type %}
      <type>{{ event.type | sc3ml_type }}</type>
    {%- endif %}
    {%- if event.type_certainty %}
      <typeCertainty>{{ event.type_certainty }}</typeCertainty>
    {%- endif %}
    {%- if event.creation_info %}
      {{ creation_info(event.creation_info) }}
    {%- endif %}
  {%- if event.description %}
    {%- for description in event.description %}
      <description>
      {%- for key, value in description.iteritems() %}
        <{{ key }}>{{ value }}</{{ key }}>
      {%- endfor %}
      </description>
    {%- endfor %}
  {%- endif %}
    {%- if event.comment %}
      <comment>{{ event.comment }}</comment>
    {%- endif %}
    {%- for origin in event.origin %}
      <originReference>{{ origin.public_id | remove_resource_prefix }}</originReference>
    {%- endfor %}
    </event>
{%- endfor %}

  </EventParameters>
</seiscomp>
